     2.100          NAVIGATION                              RINEX VERSION / TYPE
fic2rin                                 09/28/2015 00:10:08 PGM / RUN BY / DATE
                                                            END OF HEADER
24 15  9 27 20  0  0.0 -.541796907783D-05 -.682121026330D-12  .000000000000D+00
     .220000000000D+02 -.969062500000D+02  .489020369661D-08 -.221096376016D+01
    -.494159758091D-05  .345443468541D-02  .575557351112D-05  .515365321732D+04
     .720000000000D+05 -.465661287308D-07 -.106374466782D+01 -.335276126862D-07
     .951930743485D+00  .264343750000D+03  .299907903934D+00 -.844035157452D-08
    -.503949562951D-09  .100000000000D+01  .186400000000D+04  .000000000000D+00
     .240000000000D+01  .000000000000D+00  .232830643654D-08  .220000000000D+02
     .648060000000D+05  .400000000000D+01
26 15  9 27 20  0  0.0 -.657918862998D-04 -.119371179608D-10  .000000000000D+00
     .740000000000D+02  .152500000000D+02  .403945397376D-08  .104263419817D+01
     .765547156334D-06  .169750652276D-03  .146236270666D-04  .515364901733D+04
     .720000000000D+05 -.502914190292D-07 -.283804790752D-02  .167638063431D-07
     .960931967245D+00  .971562500000D+02  .385057574462D+00 -.778353850134D-08
     .139648674071D-09  .100000000000D+01  .186400000000D+04  .000000000000D+00
     .240000000000D+01  .000000000000D+00  .745058059692D-08  .740000000000D+02
     .648060000000D+05  .400000000000D+01
27 15  9 27 20  0  0.0  .230623409152D-04  .295585778076D-11  .000000000000D+00
     .108000000000D+03  .749375000000D+02  .483162982820D-08 -.410931194191D+00
     .398606061935D-05  .266474392265D-02  .449083745480D-05  .515369567490D+04
     .720000000000D+05  .707805156708D-07  .104460106959D+01 -.353902578354D-07
     .968402021946D+00  .297062500000D+03  .320088484330D+00 -.850749722855D-08
     .580381318069D-09  .100000000000D+01  .186400000000D+04  .000000000000D+00
     .240000000000D+01  .000000000000D+00  .139698386192D-08  .108000000000D+03
     .648060000000D+05  .400000000000D+01
28 15  9 27 20  0  0.0  .470528379083D-03  .261479726760D-11  .000000000000D+00
     .106000000000D+03  .150000000000D+02  .349657421778D-08  .451908353214D+00
     .854954123497D-06  .197039521299D-01  .151619315147D-04  .515370902824D+04
     .720000000000D+05 -.284984707832D-06  .738309080394D-01 -.104308128357D-06
     .989626302228D+00  .107375000000D+03 -.165712603240D+01 -.785139847083D-08
     .140362989539D-09  .100000000000D+01  .186400000000D+04  .000000000000D+00
     .340000000000D+01  .000000000000D+00 -.111758708954D-07  .106000000000D+03
     .648060000000D+05  .400000000000D+01
29 15  9 27 20  0  0.0  .636611599475D-03  .216004991671D-11  .000000000000D+00
     .550000000000D+02  .711562500000D+02  .465519390751D-08  .209715748184D+01
     .344403088093D-05  .872017466463D-03  .428780913353D-05  .515368450546D+04
     .720000000000D+05  .447034835815D-07  .110260021234D+01  .540167093277D-07
     .974330209267D+00  .303843750000D+03 -.462583556096D+00 -.835570519152D-08
     .484305887570D-09  .100000000000D+01  .186400000000D+04  .000000000000D+00
     .240000000000D+01  .000000000000D+00 -.102445483208D-07  .550000000000D+02
     .648060000000D+05  .400000000000D+01
30 15  9 27 20  0  0.0  .318191014230D-04  .636646291241D-11  .000000000000D+00
     .107000000000D+03 -.108687500000D+03  .487663170271D-08  .304445155475D+01
    -.570714473724D-05  .171026005410D-02  .670365989208D-05  .515369034958D+04
     .720000000000D+05  .409781932831D-07 -.973147431222D+00  .186264514923D-07
     .954610766982D+00  .247906250000D+03  .313738535093D+01 -.844142304772D-08
    -.685385691922D-09  .100000000000D+01  .186400000000D+04  .000000000000D+00
     .340000000000D+01  .000000000000D+00  .325962901115D-08  .107000000000D+03
     .648060000000D+05  .400000000000D+01
31 15  9 27 20  0  0.0  .301296822727D-03 -.136424205266D-11  .000000000000D+00
     .700000000000D+02 -.943750000000D+02  .441768401427D-08  .310491431006D+01
    -.486895442009D-05  .813521840610D-02  .703893601894D-05  .515359568596D+04
     .720000000000D+05 -.447034835815D-07 -.101246045071D+01  .113621354103D-06
     .973677177266D+00  .253031250000D+03 -.519953265181D+00 -.805676416800D-08
    -.650027076237D-09  .100000000000D+01  .186400000000D+04  .000000000000D+00
     .240000000000D+01  .000000000000D+00 -.135041773319D-07  .700000000000D+02
     .648060000000D+05  .400000000000D+01
32 15  9 27 20  0  0.0 -.309040769935D-04  .111413100967D-10  .000000000000D+00
     .490000000000D+02  .495937500000D+02  .442804158856D-08 -.273082596307D+01
     .236183404922D-05  .113306160783D-01  .152457505465D-04  .515369740677D+04
     .720000000000D+05 -.219792127609D-06 -.305984447240D+01 -.117346644402D-06
     .947418675494D+00  .748750000000D+02  .131219715519D+00 -.790104339589D-08
     .154292141173D-09  .100000000000D+01  .186400000000D+04  .000000000000D+00
     .240000000000D+01  .000000000000D+00 -.372529029846D-08  .490000000000D+02
     .648060000000D+05  .400000000000D+01
30 15  9 27 19 59 44.0  .318186357617D-04  .636646291241D-11  .000000000000D+00
     .800000000000D+01 -.108687500000D+03  .487663170271D-08  .304212057765D+01
    -.570714473724D-05  .171025714371D-02  .670365989208D-05  .515369035149D+04
     .719840000000D+05  .409781932831D-07 -.973147292245D+00  .186264514923D-07
     .954610778685D+00  .247906250000D+03  .313738257870D+01 -.844142304772D-08
    -.685385691922D-09  .100000000000D+01  .186400000000D+04  .000000000000D+00
     .240000000000D+01  .000000000000D+00  .325962901115D-08  .800000000000D+01
     .687660000000D+05  .400000000000D+01
30 15  9 27 21 59 44.0  .318647362292D-04  .636646291241D-11  .000000000000D+00
     .200000000000D+02 -.108250000000D+03  .490306137504D-08 -.219085077243D+01
    -.566802918911D-05  .171062035952D-02  .682845711708D-05  .515368978882D+04
     .791840000000D+05  .260770320892D-07 -.973208102824D+00  .204890966415D-07
     .954605816467D+00  .244062500000D+03  .313734250499D+01 -.844642325600D-08
    -.687171480593D-09  .100000000000D+01  .186400000000D+04  .000000000000D+00
     .240000000000D+01  .000000000000D+00  .325962901115D-08  .200000000000D+02
     .720060000000D+05  .400000000000D+01
 1 15  9 27 22  0  0.0  .129453837872D-05  .682121026330D-12  .000000000000D+00
     .540000000000D+02 -.931562500000D+02  .487127433670D-08 -.147643033674D+01
    -.496022403240D-05  .471189187374D-02  .626035034657D-05  .515365631676D+04
     .792000000000D+05  .540167093277D-07  .210247468728D+01  .372529029846D-08
     .962754431089D+00  .256937500000D+03  .481736211253D+00 -.838606359892D-08
    -.460376319379D-09  .100000000000D+01  .186400000000D+04  .000000000000D+00
     .240000000000D+01  .000000000000D+00  .512227416039D-08  .540000000000D+02
     .720060000000D+05  .400000000000D+01
 2 15  9 27 22  0  0.0  .590656418353D-03  .147792889038D-11  .000000000000D+00
     .460000000000D+02 -.882812500000D+02  .555201697808D-08 -.902941897509D+00
    -.426545739174D-05  .148210733896D-01  .524893403053D-05  .515363010597D+04
     .792000000000D+05  .176951289177D-06  .206222266017D+01  .318512320518D-06
     .941396643440D+00  .266718750000D+03 -.222961564821D+01 -.886394064728D-08
    -.479305679291D-09  .100000000000D+01  .186400000000D+04  .000000000000D+00
     .240000000000D+01  .000000000000D+00 -.204890966415D-07  .460000000000D+02
     .720060000000D+05  .400000000000D+01
 3 15  9 27 22  0  0.0  .212155282497D-04 -.227373675443D-12  .000000000000D+00
     .107000000000D+03  .286250000000D+02  .423089051929D-08  .613436622635D+00
     .141188502312D-05  .555711332709D-03  .152774155140D-04  .515360896873D+04
     .792000000000D+05 -.745058059692D-08 -.314014204450D+01 -.149011611938D-07
     .959810067073D+00  .829062500000D+02 -.267469384319D+01 -.788639992878D-08
     .835749098019D-10  .100000000000D+01  .186400000000D+04  .000000000000D+00
     .240000000000D+01  .000000000000D+00  .186264514923D-08  .107000000000D+03
     .720060000000D+05  .400000000000D+01
 4 15  9 27 22  0  0.0 -.254944898188D-04 -.443378667114D-11  .000000000000D+00
     .980000000000D+02 -.884375000000D+02  .539486757503D-08 -.167441045924D+01
    -.448524951935D-05  .119136499707D-01  .551715493202D-05  .515364501953D+04
     .792000000000D+05  .201165676117D-06  .207734361697D+01  .726431608200D-07
     .940497506193D+00  .257062500000D+03  .110490908036D+01 -.855285626079D-08
    -.405374028313D-09  .100000000000D+01  .186400000000D+04  .000000000000D+00
     .240000000000D+01  .000000000000D+00 -.651925802231D-08  .980000000000D+02
     .720060000000D+05  .400000000000D+01
 5 15  9 27 22  0  0.0 -.190932769328D-03  .397903932026D-11  .000000000000D+00
     .200000000000D+01  .425000000000D+01  .458590530708D-08  .155696706229D+01
     .495463609695D-06  .440142990556D-02  .154562294483D-04  .515366481590D+04
     .792000000000D+05 -.130385160446D-07  .313438374147D+01  .102445483208D-06
     .946976963472D+00  .740625000000D+02  .426329565606D+00 -.807497921244D-08
     .228580949885D-10  .100000000000D+01  .186400000000D+04  .000000000000D+00
     .240000000000D+01  .000000000000D+00 -.107102096081D-07  .200000000000D+01
     .720060000000D+05  .400000000000D+01
 6 15  9 27 22  0  0.0  .662882812321D-04  .716227077646D-11  .000000000000D+00
     .550000000000D+02 -.983125000000D+02  .496092092798D-08  .923741871568D+00
    -.506266951561D-05  .184877542779D-03  .623427331448D-05  .515354627037D+04
     .792000000000D+05  .372529029846D-07  .209400412681D+01  .167638063431D-07
     .962612430020D+00  .262718750000D+03  .275051279545D+01 -.843820862812D-08
    -.525736184737D-09  .100000000000D+01  .186400000000D+04  .000000000000D+00
     .240000000000D+01  .000000000000D+00  .419095158577D-08  .550000000000D+02
     .720060000000D+05  .400000000000D+01
